OBJECT_NAME,OBJECT_ID,EPOCH,MEAN_MOTION,ECCENTRICITY,INCLINATION,RA_OF_ASC_NODE,ARG_OF_PERICENTER,MEAN_ANOMALY,EPHEMERIS_TYPE,CLASSIFICATION_TYPE,NORAD_CAT_ID,ELEMENT_SET_NO,REV_AT_EPOCH,BSTAR,MEAN_MOTION_DOT,MEAN_MOTION_DDOT
ONEWEB-0130,2020-100U,2026-06-27T22:32:36.363264,13.12441503,.0001822,87.8952,348.5139,96.2739,263.8597,0,U,47276,999,26605,.41037368E-3,.16E-5,0
ONEWEB-0131,2020-100V,2026-06-27T22:27:43.960608,13.12443990,.00016583,87.8942,348.5315,96.4828,263.6490,0,U,47277,999,26609,.62349332E-3,.237E-5,0
ONEWEB-0132,2020-100W,2026-06-27T21:19:24.029184,13.12442788,.00017578,87.8946,348.5430,93.8352,266.2977,0,U,47278,999,26598,-.14422785E-2,-.506E-5,0
ONEWEB-0133,2020-100X,2026-06-27T19:53:49.977024,13.12444058,.00016692,87.8956,348.5322,94.8144,265.3175,0,U,47279,999,26613,.29835133E-3,.12E-5,0
ONEWEB-0134,2020-100Y,2026-06-27T20:59:52.958400,13.12440953,.00018012,87.8957,348.5201,101.5955,258.5376,0,U,47280,999,26611,-.88601784E-3,-.306E-5,0
ONEWEB-0135,2020-100Z,2026-06-27T20:18:25.859232,13.12442237,.00016947,87.8943,348.5475,102.3635,257.7683,0,U,47281,999,26613,.1281981E-2,.474E-5,0
ONEWEB-0136,2020-100AA,2026-06-27T22:35:02.249664,13.12441428,.00018222,87.8951,348.5107,103.4089,256.7243,0,U,47282,999,26607,.2075023E-3,.87E-6,0
ONEWEB-0137,2020-100AB,2026-06-27T21:34:03.257184,13.12443439,.00019203,87.8956,348.5296,89.5567,270.5782,0,U,47283,999,26597,-.44528716E-3,-.147E-5,0
ONEWEB-0138,2020-100AC,2026-06-27T21:02:19.800384,13.12441316,.00018757,87.8953,348.5391,100.1285,260.0055,0,U,47284,999,26605,-.10447361E-2,-.363E-5,0
ONEWEB-0139,2020-100AD,2026-06-27T22:01:06.020256,13.12442165,.0001852,87.8951,348.5173,94.2142,265.9198,0,U,47285,999,26613,.12133462E-2,.449E-5,0
ONEWEB-0140,2020-100AE,2026-06-27T22:44:47.542272,13.12441718,.00016325,87.8953,348.5023,93.1863,266.9452,0,U,47286,999,26610,-.3288653E-3,-.106E-5,0
ONEWEB-0141,2020-100AF,2026-06-27T22:00:41.811840,13.12442957,.0002055,87.8951,348.5133,87.5060,272.6304,0,U,47287,999,26608,.116093E-2,.43E-5,0
ONEWEB-0142,2020-100AG,2026-06-27T21:44:02.048928,13.12444797,.00022388,87.8946,348.5365,94.7195,265.4189,0,U,47288,999,26607,.21772214E-3,.91E-6,0
ONEWEB-0143,2020-100AH,2026-06-27T21:58:27.439104,13.12443137,.000184,87.8951,348.5339,91.4758,268.6581,0,U,47289,999,26605,.11088366E-2,.412E-5,0
ONEWEB-0144,2020-100AJ,2026-06-27T21:16:58.001952,13.12443518,.000205,87.8957,348.5140,101.9047,258.2312,0,U,47290,999,26597,-.17009673E-2,-.599E-5,0
ONEWEB-0145,2020-100AK,2026-06-27T22:25:17.212800,13.12441467,.00019064,87.8945,348.5312,95.0109,265.1237,0,U,47291,999,26617,.82367494E-3,.309E-5,0
ONEWEB-0146,2020-100AL,2026-06-27T22:20:24.741888,13.12441524,.00015378,87.8953,348.5244,86.3618,273.7687,0,U,47292,999,26608,.10189632E-2,.379E-5,0
ONEWEB-0147,2020-100AM,2026-06-27T21:31:36.907680,13.12443515,.00017205,87.8955,348.5130,97.0348,263.0976,0,U,47293,999,26597,-.63500195E-3,-.216E-5,0
ONEWEB-0115,2021-025A,2026-06-27T20:10:26.473152,13.13470862,.00017779,87.8969,318.1024,97.5815,262.5516,0,U,48042,999,25499,.82454445E-3,.314E-5,0
ONEWEB-0152,2021-025B,2026-06-27T20:29:55.835808,13.13469947,.00017306,87.8974,318.0969,97.3699,262.7627,0,U,48043,999,25495,.4762586E-4,.3E-6,0
ONEWEB-0153,2021-025C,2026-06-27T19:58:14.145888,13.13471204,.00019401,87.8964,318.1035,98.5923,261.5426,0,U,48044,999,25494,.57160476E-3,.222E-5,0
ONEWEB-0154,2021-025D,2026-06-27T19:53:21.775200,13.13469988,.0001721,87.8969,318.1022,103.1311,257.0011,0,U,48045,999,25490,.61540513E-3,.237E-5,0
ONEWEB-0116,2021-025E,2026-06-27T20:49:26.557536,13.13473456,.00017931,87.8971,318.0914,98.0969,262.0363,0,U,48046,999,25505,.25198063E-2,.933E-5,0
ONEWEB-0150,2021-025F,2026-06-27T20:15:18.637344,13.13470468,.00019769,87.8973,318.0936,93.5809,266.5546,0,U,48047,999,25494,.61395047E-3,.237E-5,0
ONEWEB-0107,2021-025G,2026-06-27T20:17:44.904768,13.13470217,.00021222,87.8973,318.0891,101.2347,258.9021,0,U,48048,999,25492,.64035801E-3,.247E-5,0
ONEWEB-0101,2021-025H,2026-06-27T21:13:49.441728,13.13463310,.00017544,87.8960,318.0950,102.2576,257.8750,0,U,48049,999,25490,.5357508E-2,.1969E-4,0
ONEWEB-0113,2021-025J,2026-06-27T19:54:15.744960,13.13893261,.00018311,87.8966,318.0163,94.2755,265.8584,0,U,48050,999,25500,.58773595E-3,.229E-5,0
ONEWEB-0112,2021-025K,2026-06-27T20:25:03.311328,13.13470229,.0001976,87.8974,318.0862,105.7608,254.3739,0,U,48051,999,25499,.32406821E-3,.131E-5,0
ONEWEB-0156,2021-025L,2026-06-27T20:37:16.055904,13.13458804,.00020381,87.8949,318.0913,100.3144,259.8215,0,U,48052,999,25497,-.27867326E-2,-.1005E-4,0
ONEWEB-0161,2021-025M,2026-06-27T20:00:40.186944,13.13471571,.00020564,87.8970,318.1007,98.4797,261.6565,0,U,48053,999,25490,.84074105E-3,.32E-5,0
