ONEWEB-0130             
1 47276U 20100U   26178.93930976  .00000160  00000+0  41037-3 0  9993
2 47276  87.8952 348.5139 0001822  96.2739 263.8597 13.12441503266052
ONEWEB-0131             
1 47277U 20100V   26178.93592547  .00000237  00000+0  62349-3 0  9996
2 47277  87.8942 348.5315 0001658  96.4828 263.6490 13.12443990266092
ONEWEB-0132             
1 47278U 20100W   26178.88847256 -.00000506  00000+0 -14423-2 0  9991
2 47278  87.8946 348.5430 0001757  93.8352 266.2977 13.12442788265988
ONEWEB-0133             
1 47279U 20100X   26178.82905066  .00000120  00000+0  29835-3 0  9994
2 47279  87.8956 348.5322 0001669  94.8144 265.3175 13.12444058266132
ONEWEB-0134             
1 47280U 20100Y   26178.87491850 -.00000306  00000+0 -88602-3 0  9997
2 47280  87.8957 348.5201 0001801 101.5955 258.5376 13.12440953266110
ONEWEB-0135             
1 47281U 20100Z   26178.84613263  .00000474  00000+0  12820-2 0  9991
2 47281  87.8943 348.5475 0001694 102.3635 257.7683 13.12442237266134
ONEWEB-0136             
1 47282U 20100AA  26178.94099826  .00000087  00000+0  20750-3 0  9998
2 47282  87.8951 348.5107 0001822 103.4089 256.7243 13.12441428266079
ONEWEB-0137             
1 47283U 20100AB  26178.89864881 -.00000147  00000+0 -44529-3 0  9993
2 47283  87.8956 348.5296 0001920  89.5567 270.5782 13.12443439265972
ONEWEB-0138             
1 47284U 20100AC  26178.87661806 -.00000363  00000+0 -10447-2 0  9995
2 47284  87.8953 348.5391 0001875 100.1285 260.0055 13.12441316266051
ONEWEB-0139             
1 47285U 20100AD  26178.91743079  .00000449  00000+0  12133-2 0  9991
2 47285  87.8951 348.5173 0001852  94.2142 265.9198 13.12442165266132
ONEWEB-0140             
1 47286U 20100AE  26178.94777248 -.00000106  00000+0 -32887-3 0  9991
2 47286  87.8953 348.5023 0001632  93.1863 266.9452 13.12441718266107
ONEWEB-0141             
1 47287U 20100AF  26178.91715060  .00000430  00000+0  11609-2 0  9999
2 47287  87.8951 348.5133 0002055  87.5060 272.6304 13.12442957266087
ONEWEB-0142             
1 47288U 20100AG  26178.90557927  .00000091  00000+0  21772-3 0  9991
2 47288  87.8946 348.5365 0002238  94.7195 265.4189 13.12444797266075
ONEWEB-0143             
1 47289U 20100AH  26178.91559536  .00000412  00000+0  11088-2 0  9996
2 47289  87.8951 348.5339 0001840  91.4758 268.6581 13.12443137266056
ONEWEB-0144             
1 47290U 20100AJ  26178.88678243 -.00000599  00000+0 -17010-2 0  9990
2 47290  87.8957 348.5140 0002050 101.9047 258.2312 13.12443518265976
ONEWEB-0145             
1 47291U 20100AK  26178.93422700  .00000309  00000+0  82367-3 0  9997
2 47291  87.8945 348.5312 0001906  95.0109 265.1237 13.12441467266173
ONEWEB-0146             
1 47292U 20100AL  26178.93084192  .00000379  00000+0  10190-2 0  9998
2 47292  87.8953 348.5244 0001537  86.3618 273.7687 13.12441524266083
ONEWEB-0147             
1 47293U 20100AM  26178.89695495 -.00000216  00000+0 -63500-3 0  9994
2 47293  87.8955 348.5130 0001720  97.0348 263.0976 13.12443515265975
ONEWEB-0115             
1 48042U 21025A   26178.84058418  .00000314  00000+0  82454-3 0  9993
2 48042  87.8969 318.1024 0001777  97.5815 262.5516 13.13470862254994
ONEWEB-0152             
1 48043U 21025B   26178.85411847  .00000030  00000+0  47626-4 0  9992
2 48043  87.8974 318.0969 0001730  97.3699 262.7627 13.13469947254958
ONEWEB-0153             
1 48044U 21025C   26178.83210817  .00000222  00000+0  57160-3 0  9991
2 48044  87.8964 318.1035 0001940  98.5923 261.5426 13.13471204254941
ONEWEB-0154             
1 48045U 21025D   26178.82872425  .00000237  00000+0  61541-3 0  9994
2 48045  87.8969 318.1022 0001721 103.1311 257.0011 13.13469988254906
ONEWEB-0116             
1 48046U 21025E   26178.86766849  .00000933  00000+0  25198-2 0  9991
2 48046  87.8971 318.0914 0001793  98.0969 262.0363 13.13473456255057
ONEWEB-0150             
1 48047U 21025F   26178.84396571  .00000237  00000+0  61395-3 0  9998
2 48047  87.8973 318.0936 0001976  93.5809 266.5546 13.13470468254949
ONEWEB-0107             
1 48048U 21025G   26178.84565862  .00000247  00000+0  64036-3 0  9996
2 48048  87.8973 318.0891 0002122 101.2347 258.9021 13.13470217254921
ONEWEB-0101             
1 48049U 21025H   26178.88460002  .00001969  00000+0  53575-2 0  9998
2 48049  87.8960 318.0950 0001754 102.2576 257.8750 13.13463310254900
ONEWEB-0113             
1 48050U 21025J   26178.82934890  .00000229  00000+0  58774-3 0  9990
2 48050  87.8966 318.0163 0001831  94.2755 265.8584 13.13893261255007
ONEWEB-0112             
1 48051U 21025K   26178.85073277  .00000131  00000+0  32407-3 0  9994
2 48051  87.8974 318.0862 0001976 105.7608 254.3739 13.13470229254995
ONEWEB-0156             
1 48052U 21025L   26178.85921361 -.00001005  00000+0 -27867-2 0  9997
2 48052  87.8949 318.0913 0002038 100.3144 259.8215 13.13458804254973
ONEWEB-0161             
1 48053U 21025M   26178.83379846  .00000320  00000+0  84074-3 0  9992
2 48053  87.8970 318.1007 0002056  98.4797 261.6565 13.13471571254902
